GLOBALSTAR M035         
1 25851U 99037A   24281.38204434 -.00000094  00000+0 -11514-2 0  9992
2 25851  51.9931 258.7444 0013730 294.2781 219.6607 11.04533100 68320
GLOBALSTAR M032         
1 25852U 99037B   24281.45655964 -.00000066  00000+0  26757-4 0  9994
2 25852  51.9924 101.2071 0011601 101.2536 258.9568 11.19063881106494
GLOBALSTAR M051         
1 25853U 99037C   24281.40512092 -.00000070  00000+0  46662-4 0  9996
2 25853  51.9789 290.6979 0001329 115.1224 244.9725 11.42200564103504
GLOBALSTAR M030         
1 25854U 99037D   24281.48867369 -.00000049  00000+0  55040-3 0  9990
2 25854  51.9850 112.6669 0003243 325.6813  34.3794 11.55102514120845
GLOBALSTAR M048         
1 25872U 99041A   24281.57178916 -.00000024  00000+0  12408-2 0  9991
2 25872  51.9357 215.5606 0013571 104.6012  65.2439 11.33850077 96326
GLOBALSTAR M026         
1 25873U 99041B   24281.53678453 -.00000067  00000+0 -93339-4 0  9991
2 25873  52.0051  19.0104 0001646 166.1321 206.9491 11.06830454120514
GLOBALSTAR M043         
1 25874U 99041C   24281.48180865 -.00000106  00000+0 -11171-2 0  9997
2 25874  51.9415 313.3498 0012955 240.3320 263.0276 11.25683024 94416
GLOBALSTAR M028         
1 25875U 99041D   24281.19148285 -.00000119  00000+0 -12606-3 0  9995
2 25875  51.9619 227.4447 0062892 242.1356 117.3124 12.50565930158526
